{
    "links": {
        "self": "http://www.neowsapp.com/rest/v1/neo/3837684?api_key=iIulBulltgU6a56xZRHN4H3l9WmuAYTsLGpBGhQ2"
    },
    "id": "3837684",
    "neo_reference_id": "3837684",
    "name": "(2019 AR5)",
    "designation": "2019 AR5",
    "nasa_jpl_url": "http://ssd.jpl.nasa.gov/sbdb.cgi?sstr=3837684",
    "absolute_magnitude_h": 21.8,
    "estimated_diameter": {
        "kilometers": {
            "estimated_diameter_min": 0.1160259082,
            "estimated_diameter_max": 0.2594418179
        },
        "meters": {
            "estimated_diameter_min": 116.0259082094,
            "estimated_diameter_max": 259.4418179074
        },
        "miles": {
            "estimated_diameter_min": 0.0720951346,
            "estimated_diameter_max": 0.1612096218
        },
        "feet": {
            "estimated_diameter_min": 380.6624406898,
            "estimated_diameter_max": 851.1870938635
        }
    },
    "is_potentially_hazardous_asteroid": false,
    "close_approach_data": [
        {
            "close_approach_date": "1900-08-27",
            "close_approach_date_full": "1900-Aug-27 16:24",
            "epoch_date_close_approach": -2188366560000,
            "relative_velocity": {
                "kilometers_per_second": "24.2518835365",
                "kilometers_per_hour": "87306.7807314526",
                "miles_per_hour": "54249.0382828295"
            },
            "miss_distance": {
                "astronomical": "0.4696770775",
                "lunar": "182.7043831475",
                "kilometers": "70262690.381824925",
                "miles": "43659211.298736965"
            },
            "orbiting_body": "Earth"
        },
        {
            "close_approach_date": "1901-01-21",
            "close_approach_date_full": "1901-Jan-21 12:51",
            "epoch_date_close_approach": -2175678540000,
            "relative_velocity": {
                "kilometers_per_second": "14.4559653426",
                "kilometers_per_hour": "52041.4752332142",
                "miles_per_hour": "32336.5488747713"
            },
            "miss_distance": {
                "astronomical": "0.0407758032",
                "lunar": "15.8617874448",
                "kilometers": "6099973.306259184",
                "miles": "3790347.6517533792"
            },
            "orbiting_body": "Mars"
        },
        {
            "close_approach_date": "2019-01-02",
            "close_approach_date_full": "2019-Jan-02 20:09",
            "epoch_date_close_approach": 1546459740000,
            "relative_velocity": {
                "kilometers_per_second": "15.2271735583",
                "kilometers_per_hour": "54817.8248100521",
                "miles_per_hour": "34061.6645326682"
            },
            "miss_distance": {
                "astronomical": "0.1006467242",
                "lunar": "39.1515757138",
                "kilometers": "15056535.562797454",
                "miles": "9355697.3692707052"
            },
            "orbiting_body": "Earth"
        },
        {
            "close_approach_date": "2022-08-24",
            "close_approach_date_full": "2022-Aug-24 09:46",
            "epoch_date_close_approach": 1661334360000,
            "relative_velocity": {
                "kilometers_per_second": "22.6636881262",
                "kilometers_per_hour": "81589.2772544561",
                "miles_per_hour": "50696.4039695813"
            },
            "miss_distance": {
                "astronomical": "0.2949440367",
                "lunar": "114.7332302763",
                "kilometers": "44122999.659521829",
                "miles": "27416760.6563420802"
            },
            "orbiting_body": "Earth"
        }
    ],
    "orbital_data": {
        "orbit_id": "11",
        "orbit_determination_date": "2019-02-05 07:55:26",
        "first_observation_date": "2019-01-06",
        "last_observation_date": "2019-02-05",
        "data_arc_in_days": 30,
        "observations_used": 55,
        "orbit_uncertainty": "7",
        "minimum_orbit_intersection": ".0999048",
        "jupiter_tisserand_invariant": "3.126",
        "epoch_osculation": "2459000.5",
        "eccentricity": ".656789031565708",
        "semi_major_axis": "2.46357724609391",
        "inclination": "12.28948666997436",
        "ascending_node_longitude": "127.7759395825516",
        "orbital_period": "1412.367460246314",
        "perihelion_distance": ".8455267324445769",
        "perihelion_argument": "278.8253300618925",
        "aphelion_distance": "4.081627759743243",
        "perihelion_time": "2458447.483837082907",
        "mean_anomaly": "140.9589389828008",
        "mean_motion": ".2548911739563985",
        "equinox": "J2000",
        "orbit_class": {
            "orbit_class_type": "APO",
            "orbit_class_description": "Near-Earth asteroid orbits which cross the Earth’s orbit similar to that of 1862 Apollo",
            "orbit_class_range": "a (semi-major axis) > 1.0 AU; q (perihelion) < 1.017 AU"
        }
    },
    "is_sentry_object": false
}